ORBCOMM FM115           
1 41186U 15081H   25094.19663829  .00002449  00000+0  51445-3 0  9999
2 41186  46.9991  31.4144 0000515   1.8983 358.1906 14.62311759496940
ORBCOMM FM108           
1 41187U 15081J   25094.71322298  .00001249  00000+0  30612-3 0  9990
2 41187  47.0039  93.9133 0003349 321.9675  38.0974 14.57957626496154
ORBCOMM FM117           
1 41188U 15081K   25094.40546233  .00001420  00000+0  34304-3 0  9997
2 41188  47.0002  94.1543 0003739 328.6594  31.4068 14.57963666496073
ORBCOMM FM116           
1 41189U 15081L   25094.53388642  .00002445  00000+0  56366-3 0  9990
2 41189  47.0005 183.4186 0000495  28.6830 331.4082 14.57987975494906
